IRIDIUM 144             
1 43249U 18030A   24112.93938658  .00001094  00000+0  38356-3 0  9996
2 43249  86.3939 258.9646 0002090  90.1510 269.9925 14.34222810317469
IRIDIUM 149             
1 43250U 18030B   24112.80618997  .00000940  00000+0  32844-3 0  9990
2 43250  86.3937 258.9963 0001950  92.4181 267.7238 14.34220706317447
IRIDIUM 157             
1 43251U 18030C   24112.82522398  .00000039  00000+0  67823-5 0  9998
2 43251  86.3941 259.0244 0002204  96.0989 264.0458 14.34216340317427
IRIDIUM 140             
1 43252U 18030D   24112.91401759  .00001139  00000+0  39966-3 0  9993
2 43252  86.3939 259.0011 0001997  84.7408 275.4015 14.34217569317491
IRIDIUM 145             
1 43253U 18030E   24112.90132868  .00001146  00000+0  40221-3 0  9999
2 43253  86.3940 258.9805 0001771  88.1128 272.0271 14.34221492317420
IRIDIUM 146             
1 43254U 18030F   24112.88229992  .00001417  00000+0  49889-3 0  9992
2 43254  86.3941 259.0036 0001895  83.8542 276.2869 14.34217367317435
IRIDIUM 148             
1 43255U 18030G   24112.92035921  .00000656  00000+0  22709-3 0  9991
2 43255  86.3940 259.0182 0001904  97.5185 262.6227 14.34216806317471
IRIDIUM 142             
1 43256U 18030H   24112.95841587  .00000900  00000+0  31442-3 0  9994
2 43256  86.3938 258.9204 0001882  90.6783 269.4628 14.34220695317443
